{
  "type": "FeatureCollection",
  "features": [
    {
      "type": "Feature",
      "properties": {
        "norad_id": 33924,
        "name": "COSMOS 2251 DEB",
        "group": "cosmos-2251-debris",
        "lat": -48.03112288265246,
        "lon": 104.27871782463174,
        "alt_km": 963.7710073405069,
        "timestamp": "2025-12-15T14:57:58.205080+00:00",
        "meta_object_name": "COSMOS 2251 DEB",
        "meta_object_id": "1993-036ED",
        "meta_epoch": "2025-12-14T21:47:02.533344",
        "meta_mean_motion": 13.50228409,
        "meta_eccentricity": 0.04039884,
        "meta_inclination": 73.9137,
        "meta_ra_of_asc_node": 266.7167,
        "meta_arg_of_pericenter": 301.7919,
        "meta_mean_anomaly": 54.4429,
        "meta_ephemeris_type": 0,
        "meta_classification_type": "U",
        "meta_norad_cat_id": 33924,
        "meta_element_set_no": 999,
        "meta_rev_at_epoch": 82768,
        "meta_bstar": 0.00077639658,
        "meta_mean_motion_dot": 7.99e-06,
        "meta_mean_motion_ddot": 0,
        "tle_line1": "1 33924U 93036ED  25348.90766821  .00000799  00000+0  77640-3 0  9994",
        "tle_line2": "2 33924  73.9137 266.7167 0403988 301.7919  54.4429 13.50228409827683"
      },
      "geometry": {
        "type": "Point",
        "coordinates": [
          104.27871782463174,
          -48.03112288265246
        ]
      }
    },
    {
      "type": "Feature",
      "properties": {
        "norad_id": 33928,
        "name": "COSMOS 2251 DEB",
        "group": "cosmos-2251-debris",
        "lat": 69.4246056087251,
        "lon": 97.31994713709179,
        "alt_km": 731.6276137735631,
        "timestamp": "2025-12-15T14:57:58.205088+00:00",
        "meta_object_name": "COSMOS 2251 DEB",
        "meta_object_id": "1993-036EH",
        "meta_epoch": "2025-12-14T13:43:55.316064",
        "meta_mean_motion": 14.47408119,
        "meta_eccentricity": 0.00615452,
        "meta_inclination": 73.926,
        "meta_ra_of_asc_node": 49.1154,
        "meta_arg_of_pericenter": 342.8399,
        "meta_mean_anomaly": 17.0676,
        "meta_ephemeris_type": 0,
        "meta_classification_type": "U",
        "meta_norad_cat_id": 33928,
        "meta_element_set_no": 999,
        "meta_rev_at_epoch": 88671,
        "meta_bstar": 0.00028253868,
        "meta_mean_motion_dot": 1.032e-05,
        "meta_mean_motion_ddot": 0,
        "tle_line1": "1 33928U 93036EH  25348.57216801  .00001032  00000+0  28254-3 0  9997",
        "tle_line2": "2 33928  73.9260  49.1154 0061545 342.8399  17.0676 14.47408119886713"
      },
      "geometry": {
        "type": "Point",
        "coordinates": [
          97.31994713709179,
          69.4246056087251
        ]
      }
    },
    {
      "type": "Feature",
      "properties": {
        "norad_id": 33932,
        "name": "COSMOS 2251 DEB",
        "group": "cosmos-2251-debris",
        "lat": 52.40326478664879,
        "lon": 108.77330586407403,
        "alt_km": 760.9231115462935,
        "timestamp": "2025-12-15T14:57:58.205097+00:00",
        "meta_object_name": "COSMOS 2251 DEB",
        "meta_object_id": "1993-036EM",
        "meta_epoch": "2025-12-14T21:42:17.724384",
        "meta_mean_motion": 14.38765454,
        "meta_eccentricity": 0.00354297,
        "meta_inclination": 74.0344,
        "meta_ra_of_asc_node": 311.9251,
        "meta_arg_of_pericenter": 27.5697,
        "meta_mean_anomaly": 332.7326,
        "meta_ephemeris_type": 0,
        "meta_classification_type": "U",
        "meta_norad_cat_id": 33932,
        "meta_element_set_no": 999,
        "meta_rev_at_epoch": 88029,
        "meta_bstar": 0.00044722172,
        "meta_mean_motion_dot": 1.358e-05,
        "meta_mean_motion_ddot": 0,
        "tle_line1": "1 33932U 93036EM  25348.90437181  .00001358  00000+0  44722-3 0  9994",
        "tle_line2": "2 33932  74.0344 311.9251 0035429  27.5697 332.7326 14.38765454880295"
      },
      "geometry": {
        "type": "Point",
        "coordinates": [
          108.77330586407403,
          52.40326478664879
        ]
      }
    },
    {
      "type": "Feature",
      "properties": {
        "norad_id": 33933,
        "name": "COSMOS 2251 DEB",
        "group": "cosmos-2251-debris",
        "lat": -72.53959656063492,
        "lon": -10.192744828506065,
        "alt_km": 828.5328615831631,
        "timestamp": "2025-12-15T14:57:58.205106+00:00",
        "meta_object_name": "COSMOS 2251 DEB",
        "meta_object_id": "1993-036EN",
        "meta_epoch": "2025-12-14T14:13:45.079104",
        "meta_mean_motion": 14.33491963,
        "meta_eccentricity": 0.00708068,
        "meta_inclination": 74.0894,
        "meta_ra_of_asc_node": 56.7593,
        "meta_arg_of_pericenter": 64.6079,
        "meta_mean_anomaly": 296.238,
        "meta_ephemeris_type": 0,
        "meta_classification_type": "U",
        "meta_norad_cat_id": 33933,
        "meta_element_set_no": 999,
        "meta_rev_at_epoch": 87811,
        "meta_bstar": 0.00031732497,
        "meta_mean_motion_dot": 8.77e-06,
        "meta_mean_motion_ddot": 0,
        "tle_line1": "1 33933U 93036EN  25348.59288286  .00000877  00000+0  31732-3 0  9992",
        "tle_line2": "2 33933  74.0894  56.7593 0070806  64.6079 296.2380 14.33491963878111"
      },
      "geometry": {
        "type": "Point",
        "coordinates": [
          -10.192744828506065,
          -72.53959656063492
        ]
      }
    },
    {
      "type": "Feature",
      "properties": {
        "norad_id": 33934,
        "name": "COSMOS 2251 DEB",
        "group": "cosmos-2251-debris",
        "lat": -56.09934378382143,
        "lon": 69.86753152210291,
        "alt_km": 701.0736789951479,
        "timestamp": "2025-12-15T14:57:58.205115+00:00",
        "meta_object_name": "COSMOS 2251 DEB",
        "meta_object_id": "1993-036EP",
        "meta_epoch": "2025-12-14T17:50:53.569248",
        "meta_mean_motion": 14.59131494,
        "meta_eccentricity": 0.0015593,
        "meta_inclination": 74.0377,
        "meta_ra_of_asc_node": 96.7531,
        "meta_arg_of_pericenter": 220.4749,
        "meta_mean_anomaly": 139.5257,
        "meta_ephemeris_type": 0,
        "meta_classification_type": "U",
        "meta_norad_cat_id": 33934,
        "meta_element_set_no": 999,
        "meta_rev_at_epoch": 88768,
        "meta_bstar": 0.00088499872,
        "meta_mean_motion_dot": 4.147e-05,
        "meta_mean_motion_ddot": 0,
        "tle_line1": "1 33934U 93036EP  25348.74367557  .00004147  00000+0  88500-3 0  9998",
        "tle_line2": "2 33934  74.0377  96.7531 0015593 220.4749 139.5257 14.59131494887684"
      },
      "geometry": {
        "type": "Point",
        "coordinates": [
          69.86753152210291,
          -56.09934378382143
        ]
      }
    },
    {
      "type": "Feature",
      "properties": {
        "norad_id": 33936,
        "name": "COSMOS 2251 DEB",
        "group": "cosmos-2251-debris",
        "lat": -56.81062115766541,
        "lon": -122.04356984283618,
        "alt_km": 687.4465279152946,
        "timestamp": "2025-12-15T14:57:58.205124+00:00",
        "meta_object_name": "COSMOS 2251 DEB",
        "meta_object_id": "1993-036ER",
        "meta_epoch": "2025-12-14T19:47:00.156768",
        "meta_mean_motion": 14.60287096,
        "meta_eccentricity": 0.0027392,
        "meta_inclination": 74.0191,
        "meta_ra_of_asc_node": 33.5,
        "meta_arg_of_pericenter": 188.523,
        "meta_mean_anomaly": 171.5475,
        "meta_ephemeris_type": 0,
        "meta_classification_type": "U",
        "meta_norad_cat_id": 33936,
        "meta_element_set_no": 999,
        "meta_rev_at_epoch": 88920,
        "meta_bstar": 0.00052643049,
        "meta_mean_motion_dot": 2.526e-05,
        "meta_mean_motion_ddot": 0,
        "tle_line1": "1 33936U 93036ER  25348.82430737  .00002526  00000+0  52643-3 0  9998",
        "tle_line2": "2 33936  74.0191  33.5000 0027392 188.5230 171.5475 14.60287096889209"
      },
      "geometry": {
        "type": "Point",
        "coordinates": [
          -122.04356984283618,
          -56.81062115766541
        ]
      }
    },
    {
      "type": "Feature",
      "properties": {
        "norad_id": 33938,
        "name": "COSMOS 2251 DEB",
        "group": "cosmos-2251-debris",
        "lat": -43.77440506369632,
        "lon": -174.11573591572258,
        "alt_km": 732.0911992247866,
        "timestamp": "2025-12-15T14:57:58.205133+00:00",
        "meta_object_name": "COSMOS 2251 DEB",
        "meta_object_id": "1993-036ET",
        "meta_epoch": "2025-12-14T17:55:58.533600",
        "meta_mean_motion": 14.46800779,
        "meta_eccentricity": 0.00168559,
        "meta_inclination": 74.0449,
        "meta_ra_of_asc_node": 203.4283,
        "meta_arg_of_pericenter": 285.4272,
        "meta_mean_anomaly": 145.7562,
        "meta_ephemeris_type": 0,
        "meta_classification_type": "U",
        "meta_norad_cat_id": 33938,
        "meta_element_set_no": 999,
        "meta_rev_at_epoch": 88429,
        "meta_bstar": 0.00043351896,
        "meta_mean_motion_dot": 1.546e-05,
        "meta_mean_motion_ddot": 0,
        "tle_line1": "1 33938U 93036ET  25348.74720525  .00001546  00000+0  43352-3 0  9996",
        "tle_line2": "2 33938  74.0449 203.4283 0016855 285.4272 145.7562 14.46800779884290"
      },
      "geometry": {
        "type": "Point",
        "coordinates": [
          -174.11573591572258,
          -43.77440506369632
        ]
      }
    }
  ]
}